<?xml version="1.0" encoding="UTF-8"?>
<ndm xmlns:xsi="https://www.w3.org/2001/XMLSchema-instance" xsi:noNamespaceSchemaLocation="https://sanaregistry.org/r/ndmxml/ndmxml-1.0-master.xsd">
<omm id="CCSDS_OMM_VERS" version="2.0">
<header><CREATION_DATE/><ORIGINATOR/></header><body><segment><metadata><OBJECT_NAME>CZ-2F R/B</OBJECT_NAME><OBJECT_ID>2020-063B</OBJECT_ID><CENTER_NAME>EARTH</CENTER_NAME><REF_FRAME>TEME</REF_FRAME><TIME_SYSTEM>UTC</TIME_SYSTEM><MEAN_ELEMENT_THEORY>SGP4</MEAN_ELEMENT_THEORY></metadata><data><meanElements><EPOCH>2020-09-08T22:03:10.711872</EPOCH><MEAN_MOTION>15.77511391</MEAN_MOTION><ECCENTRICITY>.0015803</ECCENTRICITY><INCLINATION>50.2045</INCLINATION><RA_OF_ASC_NODE>41.7556</RA_OF_ASC_NODE><ARG_OF_PERICENTER>314.3484</ARG_OF_PERICENTER><MEAN_ANOMALY>45.6201</MEAN_ANOMALY></meanElements><tleParameters><EPHEMERIS_TYPE>0</EPHEMERIS_TYPE><CLASSIFICATION_TYPE>U</CLASSIFICATION_TYPE><NORAD_CAT_ID>46390</NORAD_CAT_ID><ELEMENT_SET_NO>999</ELEMENT_SET_NO><REV_AT_EPOCH>73</REV_AT_EPOCH><BSTAR>.71104E-4</BSTAR><MEAN_MOTION_DOT>1.1522E-4</MEAN_MOTION_DOT><MEAN_MOTION_DDOT>0</MEAN_MOTION_DDOT></tleParameters></data></segment></body></omm>
<omm id="CCSDS_OMM_VERS" version="2.0">
<header><CREATION_DATE/><ORIGINATOR/></header><body><segment><metadata><OBJECT_NAME>CZ-2F DEB</OBJECT_NAME><OBJECT_ID>2020-063C</OBJECT_ID><CENTER_NAME>EARTH</CENTER_NAME><REF_FRAME>TEME</REF_FRAME><TIME_SYSTEM>UTC</TIME_SYSTEM><MEAN_ELEMENT_THEORY>SGP4</MEAN_ELEMENT_THEORY></metadata><data><meanElements><EPOCH>2020-09-08T17:09:57.040128</EPOCH><MEAN_MOTION>15.37210418</MEAN_MOTION><ECCENTRICITY>.0159921</ECCENTRICITY><INCLINATION>49.9026</INCLINATION><RA_OF_ASC_NODE>44.3312</RA_OF_ASC_NODE><ARG_OF_PERICENTER>163.3015</ARG_OF_PERICENTER><MEAN_ANOMALY>197.3288</MEAN_ANOMALY></meanElements><tleParameters><EPHEMERIS_TYPE>0</EPHEMERIS_TYPE><CLASSIFICATION_TYPE>U</CLASSIFICATION_TYPE><NORAD_CAT_ID>46391</NORAD_CAT_ID><ELEMENT_SET_NO>999</ELEMENT_SET_NO><REV_AT_EPOCH>67</REV_AT_EPOCH><BSTAR>.10990E-2</BSTAR><MEAN_MOTION_DOT>6.3333E-4</MEAN_MOTION_DOT><MEAN_MOTION_DDOT>0</MEAN_MOTION_DDOT></tleParameters></data></segment></body></omm>
<omm id="CCSDS_OMM_VERS" version="2.0">
<header><CREATION_DATE/><ORIGINATOR/></header><body><segment><metadata><OBJECT_NAME>CZ-2F DEB</OBJECT_NAME><OBJECT_ID>2020-063D</OBJECT_ID><CENTER_NAME>EARTH</CENTER_NAME><REF_FRAME>TEME</REF_FRAME><TIME_SYSTEM>UTC</TIME_SYSTEM><MEAN_ELEMENT_THEORY>SGP4</MEAN_ELEMENT_THEORY></metadata><data><meanElements><EPOCH>2020-09-08T16:27:25.788960</EPOCH><MEAN_MOTION>15.47637418</MEAN_MOTION><ECCENTRICITY>.0116544</ECCENTRICITY><INCLINATION>49.8675</INCLINATION><RA_OF_ASC_NODE>44.1513</RA_OF_ASC_NODE><ARG_OF_PERICENTER>169.6230</ARG_OF_PERICENTER><MEAN_ANOMALY>190.7020</MEAN_ANOMALY></meanElements><tleParameters><EPHEMERIS_TYPE>0</EPHEMERIS_TYPE><CLASSIFICATION_TYPE>U</CLASSIFICATION_TYPE><NORAD_CAT_ID>46392</NORAD_CAT_ID><ELEMENT_SET_NO>999</ELEMENT_SET_NO><REV_AT_EPOCH>67</REV_AT_EPOCH><BSTAR>.11643E-2</BSTAR><MEAN_MOTION_DOT>8.0707E-4</MEAN_MOTION_DOT><MEAN_MOTION_DDOT>0</MEAN_MOTION_DDOT></tleParameters></data></segment></body></omm>
<omm id="CCSDS_OMM_VERS" version="2.0">
<header><CREATION_DATE/><ORIGINATOR/></header><body><segment><metadata><OBJECT_NAME>CZ-2F DEB</OBJECT_NAME><OBJECT_ID>2020-063E</OBJECT_ID><CENTER_NAME>EARTH</CENTER_NAME><REF_FRAME>TEME</REF_FRAME><TIME_SYSTEM>UTC</TIME_SYSTEM><MEAN_ELEMENT_THEORY>SGP4</MEAN_ELEMENT_THEORY></metadata><data><meanElements><EPOCH>2020-09-08T17:02:28.247424</EPOCH><MEAN_MOTION>15.61966934</MEAN_MOTION><ECCENTRICITY>.0107063</ECCENTRICITY><INCLINATION>50.4194</INCLINATION><RA_OF_ASC_NODE>43.3179</RA_OF_ASC_NODE><ARG_OF_PERICENTER>222.3628</ARG_OF_PERICENTER><MEAN_ANOMALY>136.9129</MEAN_ANOMALY></meanElements><tleParameters><EPHEMERIS_TYPE>0</EPHEMERIS_TYPE><CLASSIFICATION_TYPE>U</CLASSIFICATION_TYPE><NORAD_CAT_ID>46393</NORAD_CAT_ID><ELEMENT_SET_NO>999</ELEMENT_SET_NO><REV_AT_EPOCH>51</REV_AT_EPOCH><BSTAR>.11507E-2</BSTAR><MEAN_MOTION_DOT>1.38715E-3</MEAN_MOTION_DOT><MEAN_MOTION_DDOT>0</MEAN_MOTION_DDOT></tleParameters></data></segment></body></omm>
<omm id="CCSDS_OMM_VERS" version="2.0">
<header><CREATION_DATE/><ORIGINATOR/></header><body><segment><metadata><OBJECT_NAME>CZ-2F DEB</OBJECT_NAME><OBJECT_ID>2020-063F</OBJECT_ID><CENTER_NAME>EARTH</CENTER_NAME><REF_FRAME>TEME</REF_FRAME><TIME_SYSTEM>UTC</TIME_SYSTEM><MEAN_ELEMENT_THEORY>SGP4</MEAN_ELEMENT_THEORY></metadata><data><meanElements><EPOCH>2020-09-08T19:04:14.037024</EPOCH><MEAN_MOTION>15.54666715</MEAN_MOTION><ECCENTRICITY>.0114104</ECCENTRICITY><INCLINATION>50.4628</INCLINATION><RA_OF_ASC_NODE>43.1098</RA_OF_ASC_NODE><ARG_OF_PERICENTER>205.0071</ARG_OF_PERICENTER><MEAN_ANOMALY>154.5240</MEAN_ANOMALY></meanElements><tleParameters><EPHEMERIS_TYPE>0</EPHEMERIS_TYPE><CLASSIFICATION_TYPE>U</CLASSIFICATION_TYPE><NORAD_CAT_ID>46394</NORAD_CAT_ID><ELEMENT_SET_NO>999</ELEMENT_SET_NO><REV_AT_EPOCH>56</REV_AT_EPOCH><BSTAR>.10712E-2</BSTAR><MEAN_MOTION_DOT>9.7579E-4</MEAN_MOTION_DOT><MEAN_MOTION_DDOT>0</MEAN_MOTION_DDOT></tleParameters></data></segment></body></omm>
<omm id="CCSDS_OMM_VERS" version="2.0">
<header><CREATION_DATE/><ORIGINATOR/></header><body><segment><metadata><OBJECT_NAME>2020-063G</OBJECT_NAME><OBJECT_ID>2020-063G</OBJECT_ID><CENTER_NAME>EARTH</CENTER_NAME><REF_FRAME>TEME</REF_FRAME><TIME_SYSTEM>UTC</TIME_SYSTEM><MEAN_ELEMENT_THEORY>SGP4</MEAN_ELEMENT_THEORY></metadata><data><meanElements><EPOCH>2020-09-08T20:34:34.468032</EPOCH><MEAN_MOTION>15.76752637</MEAN_MOTION><ECCENTRICITY>.0011892</ECCENTRICITY><INCLINATION>50.2070</INCLINATION><RA_OF_ASC_NODE>42.1142</RA_OF_ASC_NODE><ARG_OF_PERICENTER>309.0052</ARG_OF_PERICENTER><MEAN_ANOMALY>50.9869</MEAN_ANOMALY></meanElements><tleParameters><EPHEMERIS_TYPE>0</EPHEMERIS_TYPE><CLASSIFICATION_TYPE>U</CLASSIFICATION_TYPE><NORAD_CAT_ID>46395</NORAD_CAT_ID><ELEMENT_SET_NO>999</ELEMENT_SET_NO><REV_AT_EPOCH>72</REV_AT_EPOCH><BSTAR>.54437E-4</BSTAR><MEAN_MOTION_DOT>8.328E-5</MEAN_MOTION_DOT><MEAN_MOTION_DDOT>0</MEAN_MOTION_DDOT></tleParameters></data></segment></body></omm>
<omm id="CCSDS_OMM_VERS" version="2.0">
<header><CREATION_DATE/><ORIGINATOR/></header><body><segment><metadata><OBJECT_NAME>2020-064A</OBJECT_NAME><OBJECT_ID>2020-064A</OBJECT_ID><CENTER_NAME>EARTH</CENTER_NAME><REF_FRAME>TEME</REF_FRAME><TIME_SYSTEM>UTC</TIME_SYSTEM><MEAN_ELEMENT_THEORY>SGP4</MEAN_ELEMENT_THEORY></metadata><data><meanElements><EPOCH>2020-09-09T04:51:50.673312</EPOCH><MEAN_MOTION>15.31798244</MEAN_MOTION><ECCENTRICITY>.0326550</ECCENTRICITY><INCLINATION>97.3306</INCLINATION><RA_OF_ASC_NODE>5.3398</RA_OF_ASC_NODE><ARG_OF_PERICENTER>164.6036</ARG_OF_PERICENTER><MEAN_ANOMALY>289.2895</MEAN_ANOMALY></meanElements><tleParameters><EPHEMERIS_TYPE>0</EPHEMERIS_TYPE><CLASSIFICATION_TYPE>U</CLASSIFICATION_TYPE><NORAD_CAT_ID>46396</NORAD_CAT_ID><ELEMENT_SET_NO>999</ELEMENT_SET_NO><REV_AT_EPOCH>30</REV_AT_EPOCH><BSTAR>.00000E+0</BSTAR><MEAN_MOTION_DOT>-5.97E-6</MEAN_MOTION_DOT><MEAN_MOTION_DDOT>.18911E-5</MEAN_MOTION_DDOT></tleParameters></data></segment></body></omm>
<omm id="CCSDS_OMM_VERS" version="2.0">
<header><CREATION_DATE/><ORIGINATOR/></header><body><segment><metadata><OBJECT_NAME>2020-064B</OBJECT_NAME><OBJECT_ID>2020-064B</OBJECT_ID><CENTER_NAME>EARTH</CENTER_NAME><REF_FRAME>TEME</REF_FRAME><TIME_SYSTEM>UTC</TIME_SYSTEM><MEAN_ELEMENT_THEORY>SGP4</MEAN_ELEMENT_THEORY></metadata><data><meanElements><EPOCH>2020-09-09T03:46:20.853120</EPOCH><MEAN_MOTION>15.68182580</MEAN_MOTION><ECCENTRICITY>.0197360</ECCENTRICITY><INCLINATION>97.2642</INCLINATION><RA_OF_ASC_NODE>5.3562</RA_OF_ASC_NODE><ARG_OF_PERICENTER>144.2573</ARG_OF_PERICENTER><MEAN_ANOMALY>305.9646</MEAN_ANOMALY></meanElements><tleParameters><EPHEMERIS_TYPE>0</EPHEMERIS_TYPE><CLASSIFICATION_TYPE>U</CLASSIFICATION_TYPE><NORAD_CAT_ID>46397</NORAD_CAT_ID><ELEMENT_SET_NO>999</ELEMENT_SET_NO><REV_AT_EPOCH>30</REV_AT_EPOCH><BSTAR>.00000E+0</BSTAR><MEAN_MOTION_DOT>-6.34E-6</MEAN_MOTION_DOT><MEAN_MOTION_DDOT>.20067E-5</MEAN_MOTION_DDOT></tleParameters></data></segment></body></omm>
</ndm>
